[{"OBJECT_NAME":"OBJECT D","OBJECT_ID":"2025-292D","EPOCH":"2026-03-09T21:45:32.907168","MEAN_MOTION":15.05344615,"ECCENTRICITY":0.00138692,"INCLINATION":97.6365,"RA_OF_ASC_NODE":145.5948,"ARG_OF_PERICENTER":343.7291,"MEAN_ANOMALY":16.3488,"EPHEMERIS_TYPE":0,"CLASSIFICATION_TYPE":"U","NORAD_CAT_ID":66996,"ELEMENT_SET_NO":999,"REV_AT_EPOCH":1350,"BSTAR":0.00030674408,"MEAN_MOTION_DOT":4.34e-5,"MEAN_MOTION_DDOT":0},{"OBJECT_NAME":"SJ-4","OBJECT_ID":"1994-010A","EPOCH":"2026-03-08T18:49:44.141088","MEAN_MOTION":4.64144698,"ECCENTRICITY":0.555567,"INCLINATION":29.104,"RA_OF_ASC_NODE":331.0328,"ARG_OF_PERICENTER":153.1166,"MEAN_ANOMALY":251.9679,"EPHEMERIS_TYPE":0,"CLASSIFICATION_TYPE":"U","NORAD_CAT_ID":22996,"ELEMENT_SET_NO":999,"REV_AT_EPOCH":44276,"BSTAR":0.0001942086,"MEAN_MOTION_DOT":2.21e-6,"MEAN_MOTION_DDOT":0}]
